     2.10           GLONASS NAV DATA                        RINEX VERSION / TYPE
SPIDER V4,0,0,3554                      2015 03 24 00:06    PGM / RUN BY / DATE 
  2015     2    22   -6.053596735001e-009                    CORR TO SYSTEM TIME 
    16                                                      LEAP SECONDS        
                                                            END OF HEADER       
 5 15 02 22 12 45  0.0 2.715736627579D-06 0.000000000000D+00 4.500000000000D+04
    1.838358447266D+04 6.834716796875D-01 5.587935447693D-09 0.000000000000D+00
    1.645001611328D+04 5.859794616699D-01 1.862645149231D-09 1.000000000000D+00
    6.489568359375D+03-3.413098335266D+00-0.000000000000D+00 0.000000000000D+00
 6 15 02 22 12 45  0.0 6.299745291471D-05 0.000000000000D+00 4.500000000000D+04
    1.499129589844D+04 1.885052680969D+00 2.793967723846D-09 0.000000000000D+00
    2.170318847656D+03 2.086152076721D+00 1.862645149231D-09-4.000000000000D+00
    2.049559716797D+04-1.600921630859D+00-1.862645149231D-09 0.000000000000D+00
 9 15 02 22 12 45  0.0-3.856606781483D-06 0.000000000000D+00 4.500000000000D+04
    2.494405712891D+04 1.059684753418D-01 2.793967723846D-09 0.000000000000D+00
   -4.941326660156D+03-2.062587738037D-01 2.793967723846D-09-2.000000000000D+00
   -1.044344238281D+03 3.588915824890D+00 0.000000000000D+00 0.000000000000D+00
15 15 02 22 12 45  0.0 3.951787948608D-05 0.000000000000D+00 4.500000000000D+04
    1.797162109375D+03-3.139941215515D+00 9.313225746155D-10 0.000000000000D+00
    1.029283593750D+04 5.615844726563D-01 0.000000000000D+00 0.000000000000D+00
    2.327778173828D+04 4.165649414063D-03-2.793967723846D-09 0.000000000000D+00
 7 15 02 22 12 45  0.0-1.153675839305D-04-0.000000000000D+00 4.629000000000D+04
    3.109556152344D+03 1.915626525879D+00-9.313225746155D-10 0.000000000000D+00
   -1.253546728516D+04 2.319963455200D+00 9.313225746155D-10 5.000000000000D+00
    2.202599121094D+04 1.049276351929D+00-2.793967723846D-09 0.000000000000D+00
16 15 02 22 13 15  0.0-2.015288919210D-05 9.094947017729D-13 4.680000000000D+04
    1.608626562500D+04-2.558749198914D+00 3.725290298462D-09 0.000000000000D+00
    4.311815429688D+03 7.026510238647D-01 1.862645149231D-09-1.000000000000D+00
    1.931811914063D+04 1.963422775269D+00-1.862645149231D-09 0.000000000000D+00
 5 15 02 22 13 15  0.0 2.716667950153D-06 0.000000000000D+00 4.680000000000D+04
    1.912975048828D+04 1.119251251221D-01 5.587935447693D-09 0.000000000000D+00
    1.687863330078D+04-8.701229095459D-02 9.313225746155D-10 1.000000000000D+00
    1.744814453125D+02-3.558094978333D+00 9.313225746155D-10 0.000000000000D+00
 6 15 02 22 13 15  0.0 6.299745291471D-05 0.000000000000D+00 4.680000000000D+04
    1.834035400391D+04 1.790038108826D+00 4.656612873077D-09 0.000000000000D+00
    5.380781250000D+03 1.467084884644D+00 1.862645149231D-09-4.000000000000D+00
    1.685688378906D+04-2.415798187256D+00-1.862645149231D-09 0.000000000000D+00
 7 15 02 22 13 15  0.0-1.153685152531D-04-0.000000000000D+00 4.680000000000D+04
    6.963490234375D+03 2.335705757141D+00 9.313225746155D-10 0.000000000000D+00
   -8.512008300781D+03 2.109597206116D+00 9.313225746155D-10 5.000000000000D+00
    2.304148632813D+04 7.171630859375D-02-2.793967723846D-09 0.000000000000D+00
 9 15 02 22 13 15  0.0-3.856606781483D-06 0.000000000000D+00 4.680000000000D+04
    2.434153369141D+04-7.606849670410D-01 3.725290298462D-09 0.000000000000D+00
   -5.113733398438D+03 5.372905731201D-02 2.793967723846D-09-2.000000000000D+00
    5.372296386719D+03 3.494045257568D+00-0.000000000000D+00 0.000000000000D+00
15 15 02 22 13 15  0.0 3.951974213123D-05 9.094947017729D-13 4.680000000000D+04
   -3.683982421875D+03-2.900527954102D+00 0.000000000000D+00 0.000000000000D+00
    1.170924072266D+04 9.938936233521D-01-0.000000000000D+00 0.000000000000D+00
    2.238680859375D+04-9.874124526978D-01-2.793967723846D-09 0.000000000000D+00
16 15 02 22 13 45  0.0-2.015102654696D-05 9.094947017729D-13 4.860000000000D+04
    1.124882910156D+04-2.765692710876D+00 2.793967723846D-09 0.000000000000D+00
    6.057463378906D+03 1.236159324646D+00 0.000000000000D+00-1.000000000000D+00
    2.205925000000D+04 1.062250137329D+00-2.793967723846D-09 0.000000000000D+00
 5 15 02 22 13 45  0.0 2.717599272728D-06 0.000000000000D+00 4.860000000000D+04
    1.868950683594D+04-6.202926635742D-01 4.656612873077D-09 0.000000000000D+00
    1.624406591797D+04-5.823087692261D-01-0.000000000000D+00 1.000000000000D+00
   -6.154124023438D+03-3.428059577942D+00 1.862645149231D-09 0.000000000000D+00
 6 15 02 22 13 45  0.0 6.299838423729D-05 0.000000000000D+00 4.860000000000D+04
    2.126885888672D+04 1.418950080872D+00 5.587935447693D-09 0.000000000000D+00
    7.435192871094D+03 8.202943801880D-01 9.313225746155D-10-4.000000000000D+00
    1.191134228516D+04-3.043468475342D+00-9.313225746155D-10 0.000000000000D+00
 7 15 02 22 13 45  0.0-1.153694465756D-04-0.000000000000D+00 4.860000000000D+04
    1.138286767578D+04 2.531540870667D+00 1.862645149231D-09 0.000000000000D+00
   -5.066723632813D+03 1.690626144409D+00 9.313225746155D-10 5.000000000000D+00
    2.228065527344D+04-9.116849899292D-01-2.793967723846D-09 0.000000000000D+00
 9 15 02 22 13 45  0.0-3.856606781483D-06 0.000000000000D+00 4.860000000000D+04
    2.229150976563D+04-1.484965324402D+00 4.656612873077D-09 0.000000000000D+00
   -4.623027343750D+03 5.204992294312D-01 1.862645149231D-09-2.000000000000D+00
    1.137049658203D+04 3.127037048340D+00-9.313225746155D-10 0.000000000000D+00
10 15 02 22 13 45  0.0 8.721835911274D-06 9.094947017729D-13 4.863000000000D+04
    2.140112792969D+04 5.916814804077D-01 2.793967723846D-09 0.000000000000D+00
   -1.277415722656D+04-5.417280197144D-01 1.862645149231D-09-7.000000000000D+00
   -5.609833984375D+03 3.495890617371D+00 0.000000000000D+00 0.000000000000D+00
16 15 02 22 14 15  0.0-2.014823257923D-05 9.094947017729D-13 5.040000000000D+04
    6.310822265625D+03-2.672468185425D+00 1.862645149231D-09 0.000000000000D+00
    8.725566406250D+03 1.709185600281D+00-0.000000000000D+00-1.000000000000D+00
    2.309187695313D+04 7.740688323975D-02-2.793967723846D-09 0.000000000000D+00
 6 15 02 22 14 15  0.0 6.299838423729D-05 0.000000000000D+00 5.040000000000D+04
    2.329993408203D+04 8.015346527100D-01 5.587935447693D-09 0.000000000000D+00
    8.382599121094D+03 2.541494369507D-01 0.000000000000D+00-4.000000000000D+00
    6.042369628906D+03-3.435141563416D+00 0.000000000000D+00 0.000000000000D+00
 9 15 02 22 14 15  0.0-3.856606781483D-06 0.000000000000D+00 5.040000000000D+04
    1.913537597656D+04-1.977696418762D+00 4.656612873077D-09 0.000000000000D+00
   -3.162157714844D+03 1.116009712219D+00 9.313225746155D-10-2.000000000000D+00
    1.648328906250D+04 2.516779899597D+00-1.862645149231D-09 0.000000000000D+00
 7 15 02 22 14 15  0.0-1.153703778982D-04-0.000000000000D+00 5.040000000000D+04
    1.590857177734D+04 2.448065757751D+00 3.725290298462D-09 0.000000000000D+00
   -2.496203613281D+03 1.154780387878D+00 9.313225746155D-10 5.000000000000D+00
    1.980139501953D+04-1.825304031372D+00-1.862645149231D-09 0.000000000000D+00
10 15 02 22 14 15  0.0 8.724629878998D-06 9.094947017729D-13 5.040000000000D+04
    2.171305859375D+04-2.295646667480D-01 3.725290298462D-09 0.000000000000D+00
   -1.342951123047D+04-1.466922760010D-01 1.862645149231D-09-7.000000000000D+00
    8.177583007813D+02 3.599705696106D+00-0.000000000000D+00 0.000000000000D+00
16 15 02 22 14 45  0.0-2.014636993408D-05 9.094947017729D-13 5.220000000000D+04
    1.788067382813D+03-2.313750267029D+00 0.000000000000D+00 0.000000000000D+00
    1.211151513672D+04 2.018015861511D+00-0.000000000000D+00-1.000000000000D+00
    2.233350146484D+04-9.147586822510D-01-2.793967723846D-09 0.000000000000D+00
 6 15 02 22 14 45  0.0 6.299931555986D-05 0.000000000000D+00 5.220000000000D+04
    2.404858056641D+04 8.803367614746D-03 5.587935447693D-09 0.000000000000D+00
    8.453309082031D+03-1.411581039429D-01-9.313225746155D-10-4.000000000000D+00
   -2.949511718750D+02-3.560489654541D+00 9.313225746155D-10 0.000000000000D+00
 9 15 02 22 14 45  0.0-3.855675458908D-06 0.000000000000D+00 5.220000000000D+04
    1.534206201172D+04-2.188239097595D+00 3.725290298462D-09 0.000000000000D+00
   -5.905107421875D+02 1.736034393311D+00 0.000000000000D+00-2.000000000000D+00
    2.031354199219D+04 1.711431503296D+00-1.862645149231D-09 0.000000000000D+00
 7 15 02 22 14 45  0.0-1.153657212853D-04-0.000000000000D+00 5.220000000000D+04
    2.002020117188D+04 2.073307991028D+00 4.656612873077D-09 0.000000000000D+00
   -9.150283203125D+02 6.096677780151D-01 0.000000000000D+00 5.000000000000D+00
    1.579392041016D+04-2.598680496216D+00-9.313225746155D-10 0.000000000000D+00
10 15 02 22 14 45  0.0 8.727423846722D-06 9.094947017729D-13 5.220000000000D+04
    2.066218408203D+04-9.058828353882D-01 4.656612873077D-09 0.000000000000D+00
   -1.317734716797D+04 4.552154541016D-01 9.313225746155D-10-7.000000000000D+00
    7.182324218750D+03 3.426259994507D+00-9.313225746155D-10 0.000000000000D+00
 8 15 02 22 14 45  0.0-2.633593976498D-05 0.000000000000D+00 5.271000000000D+04
    4.780693359375D+03 2.965343475342D+00 1.862645149231D-09 0.000000000000D+00
   -9.956334960938D+03 1.037528991699D+00 9.313225746155D-10 6.000000000000D+00
    2.303814453125D+04-1.655807495117D-01-2.793967723846D-09 0.000000000000D+00
16 15 02 22 15 15  0.0-2.014450728893D-05 9.094947017729D-13 5.400000000000D+04
   -1.903903808594D+03-1.764685630798D+00-9.313225746155D-10 0.000000000000D+00
    1.584358300781D+04 2.083421707153D+00-9.313225746155D-10-1.000000000000D+00
    1.984084667969D+04-1.836928367615D+00-1.862645149231D-09 0.000000000000D+00
